{"fetched_at":"2026-07-14T06:35:05.656Z","source":"https://celestrak.org/NORAD/elements/gp.php?NAME=SPACEMOBILE&FORMAT=JSON","constellation":"ast-spacemobile","records":[{"OBJECT_NAME":"SPACEMOBILE-003","OBJECT_ID":"2024-163A","EPOCH":"2026-07-12T02:59:11.082912","CLASSIFICATION_TYPE":"U","MEAN_MOTION":15.20757146,"ECCENTRICITY":0.00039532,"INCLINATION":52.9645,"RA_OF_ASC_NODE":194.7701,"ARG_OF_PERICENTER":176.8899,"MEAN_ANOMALY":183.212,"EPHEMERIS_TYPE":0,"NORAD_CAT_ID":61045,"ELEMENT_SET_NO":999,"REV_AT_EPOCH":10156,"BSTAR":0.000015017438,"MEAN_MOTION_DOT":8e-8,"MEAN_MOTION_DDOT":0},{"OBJECT_NAME":"SPACEMOBILE-005","OBJECT_ID":"2024-163B","EPOCH":"2026-07-13T02:14:56.738400","CLASSIFICATION_TYPE":"U","MEAN_MOTION":15.2074616,"ECCENTRICITY":0.00085164,"INCLINATION":52.9757,"RA_OF_ASC_NODE":190.2542,"ARG_OF_PERICENTER":188.4778,"MEAN_ANOMALY":171.6074,"EPHEMERIS_TYPE":0,"NORAD_CAT_ID":61046,"ELEMENT_SET_NO":999,"REV_AT_EPOCH":10170,"BSTAR":0.000029081362,"MEAN_MOTION_DOT":0.0000032,"MEAN_MOTION_DDOT":0},{"OBJECT_NAME":"SPACEMOBILE-001","OBJECT_ID":"2024-163C","EPOCH":"2026-07-11T10:46:43.885920","CLASSIFICATION_TYPE":"U","MEAN_MOTION":15.20792937,"ECCENTRICITY":0.00074751,"INCLINATION":52.9736,"RA_OF_ASC_NODE":197.5273,"ARG_OF_PERICENTER":183.3179,"MEAN_ANOMALY":176.7767,"EPHEMERIS_TYPE":0,"NORAD_CAT_ID":61047,"ELEMENT_SET_NO":999,"REV_AT_EPOCH":10145,"BSTAR":0.000028550562,"MEAN_MOTION_DOT":0.00000309,"MEAN_MOTION_DDOT":0},{"OBJECT_NAME":"SPACEMOBILE-002","OBJECT_ID":"2024-163D","EPOCH":"2026-07-13T01:49:27.471360","CLASSIFICATION_TYPE":"U","MEAN_MOTION":15.20818302,"ECCENTRICITY":0.00063791,"INCLINATION":52.9787,"RA_OF_ASC_NODE":190.0866,"ARG_OF_PERICENTER":191.8159,"MEAN_ANOMALY":168.2686,"EPHEMERIS_TYPE":0,"NORAD_CAT_ID":61048,"ELEMENT_SET_NO":999,"REV_AT_EPOCH":10170,"BSTAR":0.00061596906,"MEAN_MOTION_DOT":0.00013464,"MEAN_MOTION_DDOT":0},{"OBJECT_NAME":"SPACEMOBILE-004","OBJECT_ID":"2024-163E","EPOCH":"2026-07-12T09:38:01.727232","CLASSIFICATION_TYPE":"U","MEAN_MOTION":15.2079556,"ECCENTRICITY":0.0006853,"INCLINATION":52.9682,"RA_OF_ASC_NODE":192.9673,"ARG_OF_PERICENTER":216.7757,"MEAN_ANOMALY":143.2768,"EPHEMERIS_TYPE":0,"NORAD_CAT_ID":61049,"ELEMENT_SET_NO":999,"REV_AT_EPOCH":10160,"BSTAR":0.00058302,"MEAN_MOTION_DOT":0.00012717,"MEAN_MOTION_DDOT":0},{"OBJECT_NAME":"SPACEMOBILE-002 DEB","OBJECT_ID":"2024-163G","EPOCH":"2026-07-12T22:55:24.700800","CLASSIFICATION_TYPE":"U","MEAN_MOTION":15.43763738,"ECCENTRICITY":0.00045352,"INCLINATION":52.9409,"RA_OF_ASC_NODE":142.3218,"ARG_OF_PERICENTER":277.8645,"MEAN_ANOMALY":82.1844,"EPHEMERIS_TYPE":0,"NORAD_CAT_ID":62370,"ELEMENT_SET_NO":999,"REV_AT_EPOCH":10234,"BSTAR":0.00032583085,"MEAN_MOTION_DOT":0.00014579,"MEAN_MOTION_DDOT":0},{"OBJECT_NAME":"SPACEMOBILE-003 DEB","OBJECT_ID":"2024-163H","EPOCH":"2026-07-13T05:52:55.847712","CLASSIFICATION_TYPE":"U","MEAN_MOTION":15.41516378,"ECCENTRICITY":0.0005427,"INCLINATION":52.9684,"RA_OF_ASC_NODE":147.8051,"ARG_OF_PERICENTER":229.5978,"MEAN_ANOMALY":130.4552,"EPHEMERIS_TYPE":0,"NORAD_CAT_ID":62371,"ELEMENT_SET_NO":999,"REV_AT_EPOCH":9590,"BSTAR":0.00028756,"MEAN_MOTION_DOT":0.00011862,"MEAN_MOTION_DDOT":0},{"OBJECT_NAME":"SPACEMOBILE-004 DEB","OBJECT_ID":"2024-163J","EPOCH":"2026-07-13T06:18:14.719104","CLASSIFICATION_TYPE":"U","MEAN_MOTION":15.40730557,"ECCENTRICITY":0.0002739,"INCLINATION":52.9836,"RA_OF_ASC_NODE":147.3611,"ARG_OF_PERICENTER":255.79,"MEAN_ANOMALY":104.2798,"EPHEMERIS_TYPE":0,"NORAD_CAT_ID":62372,"ELEMENT_SET_NO":999,"REV_AT_EPOCH":9897,"BSTAR":0.00023576,"MEAN_MOTION_DOT":0.00009391,"MEAN_MOTION_DDOT":0},{"OBJECT_NAME":"SPACEMOBILE-005 DEB","OBJECT_ID":"2024-163K","EPOCH":"2026-07-13T07:30:20.710944","CLASSIFICATION_TYPE":"U","MEAN_MOTION":15.3463542,"ECCENTRICITY":0.00057373,"INCLINATION":52.9732,"RA_OF_ASC_NODE":161.2644,"ARG_OF_PERICENTER":222.6937,"MEAN_ANOMALY":137.3618,"EPHEMERIS_TYPE":0,"NORAD_CAT_ID":62373,"ELEMENT_SET_NO":999,"REV_AT_EPOCH":10213,"BSTAR":0.00020809434,"MEAN_MOTION_DOT":0.00006714,"MEAN_MOTION_DDOT":0},{"OBJECT_NAME":"SPACEMOBILE-006","OBJECT_ID":"2025-309A","EPOCH":"2026-07-13T10:24:55.622304","CLASSIFICATION_TYPE":"U","MEAN_MOTION":15.18650721,"ECCENTRICITY":0.00103071,"INCLINATION":52.9936,"RA_OF_ASC_NODE":211.4033,"ARG_OF_PERICENTER":209.4952,"MEAN_ANOMALY":150.5461,"EPHEMERIS_TYPE":0,"NORAD_CAT_ID":67232,"ELEMENT_SET_NO":999,"REV_AT_EPOCH":3058,"BSTAR":0.00003680225,"MEAN_MOTION_DOT":0.0000045,"MEAN_MOTION_DDOT":0},{"OBJECT_NAME":"SPACEMOBILE-008","OBJECT_ID":"2026-139A","EPOCH":"2026-07-13T05:41:11.027616","CLASSIFICATION_TYPE":"U","MEAN_MOTION":15.12800584,"ECCENTRICITY":0.000499,"INCLINATION":52.9945,"RA_OF_ASC_NODE":144.2981,"ARG_OF_PERICENTER":51.825,"MEAN_ANOMALY":308.319,"EPHEMERIS_TYPE":0,"NORAD_CAT_ID":69589,"ELEMENT_SET_NO":999,"REV_AT_EPOCH":392,"BSTAR":0.000010367,"MEAN_MOTION_DOT":-0.00000117,"MEAN_MOTION_DDOT":0},{"OBJECT_NAME":"SPACEMOBILE-009","OBJECT_ID":"2026-139B","EPOCH":"2026-07-13T12:04:22.504800","CLASSIFICATION_TYPE":"U","MEAN_MOTION":15.12694011,"ECCENTRICITY":0.00052471,"INCLINATION":52.9937,"RA_OF_ASC_NODE":143.1044,"ARG_OF_PERICENTER":48.2682,"MEAN_ANOMALY":311.8757,"EPHEMERIS_TYPE":0,"NORAD_CAT_ID":69590,"ELEMENT_SET_NO":999,"REV_AT_EPOCH":396,"BSTAR":0.000010567857,"MEAN_MOTION_DOT":-0.00000114,"MEAN_MOTION_DDOT":0},{"OBJECT_NAME":"SPACEMOBILE-010","OBJECT_ID":"2026-139C","EPOCH":"2026-07-13T05:47:58.811424","CLASSIFICATION_TYPE":"U","MEAN_MOTION":15.12525408,"ECCENTRICITY":0.0005157,"INCLINATION":52.9943,"RA_OF_ASC_NODE":144.3248,"ARG_OF_PERICENTER":39.4417,"MEAN_ANOMALY":320.6949,"EPHEMERIS_TYPE":0,"NORAD_CAT_ID":69591,"ELEMENT_SET_NO":999,"REV_AT_EPOCH":393,"BSTAR":0.000015486,"MEAN_MOTION_DOT":-2.8e-7,"MEAN_MOTION_DDOT":0}]}
